{"type": "FeatureCollection", "features": [ {"type": "Feature", "properties": {"norad_id": 66839, "name": "STARLINK-35717", "group": "last-30-days", "lat": 24.012546690956146, "lon": 170.3081631689581, "alt_km": 409.708716059321, "timestamp": "2025-12-26T09:30:52.342546+00:00", "meta": {"OBJECT_NAME": "STARLINK-35717", "OBJECT_ID": "2025-280U", "EPOCH": "2025-12-26T03:13:09.219072", "MEAN_MOTION": 15.52555869, "ECCENTRICITY": 0.0003847, "INCLINATION": 70.0009, "RA_OF_ASC_NODE": 161.6886, "ARG_OF_PERICENTER": 256.6799, "MEAN_ANOMALY": 103.3959, "EPHEMERIS_TYPE": 0, "CLASSIFICATION_TYPE": "U", "NORAD_CAT_ID": 66839, "ELEMENT_SET_NO": 999, "REV_AT_EPOCH": 501, "BSTAR": 0.0013157, "MEAN_MOTION_DOT": 0.00081728, "MEAN_MOTION_DDOT": 0}, "tle": {"line1": "1 66839U 25280U   25360.13413448  .00081728  00000+0  13157-2 0  9997", "line2": "2 66839  70.0009 161.6886 0003847 256.6799 103.3959 15.52555869  5019"}}, "geometry": {"type": "Point", "coordinates": [170.3081631689581, 24.012546690956146]}}, {"type": "Feature", "properties": {"norad_id": 66840, "name": "STARLINK-35837", "group": "last-30-days", "lat": 27.613094617069464, "lon": 171.94912108245572, "alt_km": 408.33695747557795, "timestamp": "2025-12-26T09:30:52.342556+00:00", "meta": {"OBJECT_NAME": "STARLINK-35837", "OBJECT_ID": "2025-280V", "EPOCH": "2025-12-25T22:33:49.876704", "MEAN_MOTION": 15.52554783, "ECCENTRICITY": 0.0003336, "INCLINATION": 70.0008, "RA_OF_ASC_NODE": 162.2157, "ARG_OF_PERICENTER": 274.4565, "MEAN_ANOMALY": 85.6241, "EPHEMERIS_TYPE": 0, "CLASSIFICATION_TYPE": "U", "NORAD_CAT_ID": 66840, "ELEMENT_SET_NO": 999, "REV_AT_EPOCH": 498, "BSTAR": 0.0015173, "MEAN_MOTION_DOT": 0.00094417, "MEAN_MOTION_DDOT": 0}, "tle": {"line1": "1 66840U 25280V   25359.94016061  .00094417  00000+0  15173-2 0  9995", "line2": "2 66840  70.0008 162.2157 0003336 274.4565  85.6241 15.52554783  4985"}}, "geometry": {"type": "Point", "coordinates": [171.94912108245572, 27.613094617069464]}}, {"type": "Feature", "properties": {"norad_id": 66841, "name": "STARLINK-35715", "group": "last-30-days", "lat": 29.439183633930483, "lon": 172.8260714163906, "alt_km": 408.1102115327685, "timestamp": "2025-12-26T09:30:52.342566+00:00", "meta": {"OBJECT_NAME": "STARLINK-35715", "OBJECT_ID": "2025-280W", "EPOCH": "2025-12-25T17:54:59.759136", "MEAN_MOTION": 15.52550254, "ECCENTRICITY": 0.00033851, "INCLINATION": 70.0008, "RA_OF_ASC_NODE": 162.7437, "ARG_OF_PERICENTER": 274.3901, "MEAN_ANOMALY": 85.6899, "EPHEMERIS_TYPE": 0, "CLASSIFICATION_TYPE": "U", "NORAD_CAT_ID": 66841, "ELEMENT_SET_NO": 999, "REV_AT_EPOCH": 495, "BSTAR": 0.0012511653, "MEAN_MOTION_DOT": 0.00077649, "MEAN_MOTION_DDOT": 0}, "tle": {"line1": "1 66841U 25280W   25359.74652499  .00077649  00000+0  12512-2 0  9997", "line2": "2 66841  70.0008 162.7437 0003385 274.3901  85.6899 15.52550254  4954"}}, "geometry": {"type": "Point", "coordinates": [172.8260714163906, 29.439183633930483]}}, {"type": "Feature", "properties": {"norad_id": 66842, "name": "STARLINK-35769", "group": "last-30-days", "lat": 31.237890333315672, "lon": 173.72451742492783, "alt_km": 407.7151409667922, "timestamp": "2025-12-26T09:30:52.342575+00:00", "meta": {"OBJECT_NAME": "STARLINK-35769", "OBJECT_ID": "2025-280X", "EPOCH": "2025-12-25T16:21:43.530048", "MEAN_MOTION": 15.52546492, "ECCENTRICITY": 0.00031597, "INCLINATION": 70.0007, "RA_OF_ASC_NODE": 162.9191, "ARG_OF_PERICENTER": 274.6719, "MEAN_ANOMALY": 85.4107, "EPHEMERIS_TYPE": 0, "CLASSIFICATION_TYPE": "U", "NORAD_CAT_ID": 66842, "ELEMENT_SET_NO": 999, "REV_AT_EPOCH": 494, "BSTAR": 0.0015378743, "MEAN_MOTION_DOT": 0.00095683, "MEAN_MOTION_DDOT": 0}, "tle": {"line1": "1 66842U 25280X   25359.68175382  .00095683  00000+0  15379-2 0  9994", "line2": "2 66842  70.0007 162.9191 0003159 274.6719  85.4107 15.52546492  4940"}}, "geometry": {"type": "Point", "coordinates": [173.72451742492783, 31.237890333315672]}}, {"type": "Feature", "properties": {"norad_id": 66843, "name": "STARLINK-35997", "group": "last-30-days", "lat": 34.56532990588156, "lon": 175.488399014335, "alt_km": 407.52657173358966, "timestamp": "2025-12-26T09:30:52.342585+00:00", "meta": {"OBJECT_NAME": "STARLINK-35997", "OBJECT_ID": "2025-280Y", "EPOCH": "2025-12-26T03:10:11.828640", "MEAN_MOTION": 15.52542305, "ECCENTRICITY": 0.0003326, "INCLINATION": 70.0009, "RA_OF_ASC_NODE": 161.6797, "ARG_OF_PERICENTER": 276.7411, "MEAN_ANOMALY": 83.3398, "EPHEMERIS_TYPE": 0, "CLASSIFICATION_TYPE": "U", "NORAD_CAT_ID": 66843, "ELEMENT_SET_NO": 999, "REV_AT_EPOCH": 501, "BSTAR": 0.0014837, "MEAN_MOTION_DOT": 0.00092252, "MEAN_MOTION_DDOT": 0}, "tle": {"line1": "1 66843U 25280Y   25360.13208135  .00092252  00000+0  14837-2 0  9997", "line2": "2 66843  70.0009 161.6797 0003326 276.7411  83.3398 15.52542305  5016"}}, "geometry": {"type": "Point", "coordinates": [175.488399014335, 34.56532990588156]}}, {"type": "Feature", "properties": {"norad_id": 66844, "name": "STARLINK-36073", "group": "last-30-days", "lat": 32.790030424861726, "lon": 174.52784611878488, "alt_km": 408.154505868657, "timestamp": "2025-12-26T09:30:52.342597+00:00", "meta": {"OBJECT_NAME": "STARLINK-36073", "OBJECT_ID": "2025-280Z", "EPOCH": "2025-12-26T04:00:01.998720", "MEAN_MOTION": 15.52464104, "ECCENTRICITY": 0.0003452, "INCLINATION": 70.0005, "RA_OF_ASC_NODE": 161.5867, "ARG_OF_PERICENTER": 274.5456, "MEAN_ANOMALY": 277.0409, "EPHEMERIS_TYPE": 0, "CLASSIFICATION_TYPE": "U", "NORAD_CAT_ID": 66844, "ELEMENT_SET_NO": 999, "REV_AT_EPOCH": 505, "BSTAR": 0.00086256, "MEAN_MOTION_DOT": 0.00053149, "MEAN_MOTION_DDOT": 0}, "tle": {"line1": "1 66844U 25280Z   25360.16668980  .00053149  00000+0  86256-3 0  9996", "line2": "2 66844  70.0005 161.5867 0003452 274.5456 277.0409 15.52464104  5054"}}, "geometry": {"type": "Point", "coordinates": [174.52784611878488, 32.790030424861726]}}, {"type": "Feature", "properties": {"norad_id": 66845, "name": "STARLINK-36068", "group": "last-30-days", "lat": 39.75084734526755, "lon": 178.58242657304757, "alt_km": 407.1086474699532, "timestamp": "2025-12-26T09:30:52.342609+00:00", "meta": {"OBJECT_NAME": "STARLINK-36068", "OBJECT_ID": "2025-280AA", "EPOCH": "2025-12-26T03:08:42.816768", "MEAN_MOTION": 15.52533057, "ECCENTRICITY": 0.0003471, "INCLINATION": 70.0011, "RA_OF_ASC_NODE": 161.676, "ARG_OF_PERICENTER": 274.3066, "MEAN_ANOMALY": 85.7724, "EPHEMERIS_TYPE": 0, "CLASSIFICATION_TYPE": "U", "NORAD_CAT_ID": 66845, "ELEMENT_SET_NO": 999, "REV_AT_EPOCH": 501, "BSTAR": 0.00092738, "MEAN_MOTION_DOT": 0.00057329, "MEAN_MOTION_DDOT": 0}, "tle": {"line1": "1 66845U 25280AA  25360.13105112  .00057329  00000+0  92738-3 0  9993", "line2": "2 66845  70.0011 161.6760 0003471 274.3066  85.7724 15.52533057  5015"}}, "geometry": {"type": "Point", "coordinates": [178.58242657304757, 39.75084734526755]}}, {"type": "Feature", "properties": {"norad_id": 66846, "name": "STARLINK-36055", "group": "last-30-days", "lat": 36.25866208018882, "lon": 176.44874296753466, "alt_km": 407.6516038864029, "timestamp": "2025-12-26T09:30:52.342619+00:00", "meta": {"OBJECT_NAME": "STARLINK-36055", "OBJECT_ID": "2025-280AB", "EPOCH": "2025-12-25T17:53:01.855968", "MEAN_MOTION": 15.52504965, "ECCENTRICITY": 0.00033929, "INCLINATION": 70.001, "RA_OF_ASC_NODE": 162.7379, "ARG_OF_PERICENTER": 270.6917, "MEAN_ANOMALY": 89.3881, "EPHEMERIS_TYPE": 0, "CLASSIFICATION_TYPE": "U", "NORAD_CAT_ID": 66846, "ELEMENT_SET_NO": 999, "REV_AT_EPOCH": 495, "BSTAR": 0.00066927244, "MEAN_MOTION_DOT": 0.000412, "MEAN_MOTION_DDOT": 0}, "tle": {"line1": "1 66846U 25280AB  25359.74516037  .00041200  00000+0  66927-3 0  9993", "line2": "2 66846  70.0010 162.7379 0003392 270.6917  89.3881 15.52504965  4951"}}, "geometry": {"type": "Point", "coordinates": [176.44874296753466, 36.25866208018882]}}, {"type": "Feature", "properties": {"norad_id": 66847, "name": "STARLINK-36061", "group": "last-30-days", "lat": 38.08623825485928, "lon": 177.5367850616959, "alt_km": 407.09488137882636, "timestamp": "2025-12-26T09:30:52.342629+00:00", "meta": {"OBJECT_NAME": "STARLINK-36061", "OBJECT_ID": "2025-280AC", "EPOCH": "2025-12-26T01:36:25.413984", "MEAN_MOTION": 15.5256041, "ECCENTRICITY": 0.0003289, "INCLINATION": 70.0011, "RA_OF_ASC_NODE": 161.854, "ARG_OF_PERICENTER": 274.7993, "MEAN_ANOMALY": 85.2819, "EPHEMERIS_TYPE": 0, "CLASSIFICATION_TYPE": "U", "NORAD_CAT_ID": 66847, "ELEMENT_SET_NO": 999, "REV_AT_EPOCH": 500, "BSTAR": 0.0011678, "MEAN_MOTION_DOT": 0.00072443, "MEAN_MOTION_DDOT": 0}, "tle": {"line1": "1 66847U 25280AC  25360.06696081  .00072443  00000+0  11678-2 0  9994", "line2": "2 66847  70.0011 161.8540 0003289 274.7993  85.2819 15.52560410  5007"}}, "geometry": {"type": "Point", "coordinates": [177.5367850616959, 38.08623825485928]}}, {"type": "Feature", "properties": {"norad_id": 66848, "name": "STARLINK-36091", "group": "last-30-days", "lat": -1.5574650895329736, "lon": -138.5320653733279, "alt_km": 414.8428820322624, "timestamp": "2025-12-26T09:30:52.342641+00:00", "meta": {"OBJECT_NAME": "STARLINK-36091", "OBJECT_ID": "2025-281A", "EPOCH": "2025-12-26T04:00:01.998720", "MEAN_MOTION": 15.50511526, "ECCENTRICITY": 0.0001093, "INCLINATION": 43.0003, "RA_OF_ASC_NODE": 41.14, "ARG_OF_PERICENTER": 250.0052, "MEAN_ANOMALY": 88.2296, "EPHEMERIS_TYPE": 0, "CLASSIFICATION_TYPE": "U", "NORAD_CAT_ID": 66848, "ELEMENT_SET_NO": 999, "REV_AT_EPOCH": 354, "BSTAR": 0.0012833, "MEAN_MOTION_DOT": 0.00075489, "MEAN_MOTION_DDOT": 0}, "tle": {"line1": "1 66848U 25281A   25360.16668980  .00075489  00000+0  12833-2 0  9991", "line2": "2 66848  43.0003  41.1400 0001093 250.0052  88.2296 15.50511526  3549"}}, "geometry": {"type": "Point", "coordinates": [-138.5320653733279, -1.5574650895329736]}}]}